NORAD_CAT_ID,OBJECT_NAME,OBJECT_TYPE,EPOCH,MEAN_MOTION,ECCENTRICITY,INCLINATION,RA_OF_ASC_NODE,ARG_OF_PERICENTER,MEAN_ANOMALY,BSTAR,MEAN_MOTION_DOT,MEAN_MOTION_DDOT,TLE_LINE0,TLE_LINE1,TLE_LINE2,SEMIMAJOR_AXIS,PERIOD,APOGEE,PERIGEE,DECAYED
55283.0,STARLINK-5317,PAYLOAD,2023-03-25 14:00:01,15.2063179,0.0003377,70.0006,248.315,268.7716,67.958,-0.054415,-0.01093319,0.0,0 STARLINK-5317,1 55283U 23010Q   23084.58334491 -.01093319  00000-0 -54415-1 0  9991,2 55283  70.0006 248.3150 0003377 268.7716  67.9580 15.20631790 10660,6882.071,94.697,506.26,501.612,0.0
55283.0,STARLINK-5317,PAYLOAD,2023-03-25 22:00:00,15.19857479,0.0003324,70.0004,247.4454,274.6651,85.8137,-0.053891,-0.01061367,0.0,0 STARLINK-5317,1 55283U 23010Q   23084.91667824 -.01061367  00000-0 -53891-1 0  9992,2 55283  70.0004 247.4454 0003324 274.6651  85.8137 15.19857479  1312,6884.408,94.746,508.561,503.985,0.0
55283.0,STARLINK-5317,PAYLOAD,2023-03-26 14:00:01,15.18347995,0.0003363,70.0007,245.7098,270.8398,134.3985,-0.058156,-0.01107335,0.0,0 STARLINK-5317,1 55283U 23010Q   23085.58334491 -.01107335  00000-0 -58156-1 0  9992,2 55283  70.0007 245.7098 0003363 270.8398 134.3985 15.18347995 10822,6888.97,94.84,513.152,508.518,0.0
55283.0,STARLINK-5317,PAYLOAD,2023-03-27 00:00:00,15.17408874,0.0003055,70.0004,244.6268,275.4248,245.927,-0.060639,-0.01122456,0.0,0 STARLINK-5317,1 55283U 23010Q   23086.00001157 -.01122456  00000-0 -60639-1 0  9990,2 55283  70.0004 244.6268 0003055 275.4248 245.9270 15.17408874  1301,6891.812,94.899,515.783,511.572,0.0
55283.0,STARLINK-5317,PAYLOAD,2023-03-27 06:00:00,15.16777891,0.0003213,70.0005,243.978,270.8316,175.5255,-0.055204,-0.00999676,0.0,0 STARLINK-5317,1 55283U 23010Q   23086.25001157 -.00999676  00000-0 -55204-1 0  9994,2 55283  70.0005 243.9780 0003213 270.8316 175.5255 15.16777891 10920,6893.723,94.938,517.803,513.373,0.0
55283.0,STARLINK-5317,PAYLOAD,2023-03-27 14:00:01,15.16061629,0.000324,70.0007,243.1138,271.8673,193.6669,-0.061881,-0.01103581,0.0,0 STARLINK-5317,1 55283U 23010Q   23086.58334491 -.01103581  00000-0 -61881-1 0  9991,2 55283  70.0007 243.1138 0003240 271.8673 193.6669 15.16061629 10978,6895.894,94.983,519.994,515.525,0.0
55283.0,STARLINK-5317,PAYLOAD,2023-03-27 22:00:00,15.1529285,0.0003125,70.0003,242.2503,276.6667,207.1376,-0.061605,-0.01076885,0.0,0 STARLINK-5317,1 55283U 23010Q   23086.91667824 -.01076885  00000-0 -61605-1 0  9997,2 55283  70.0003 242.2503 0003125 276.6667 207.1376 15.15292850  1302,6898.227,95.031,522.247,517.936,0.0
55283.0,STARLINK-5317,PAYLOAD,2023-03-28 08:00:01,15.14342391,0.0003134,70.0003,241.1728,266.1889,329.1691,-0.06283,-0.01069647,0.0,0 STARLINK-5317,1 55283U 23010Q   23087.33334491 -.01069647  00000-0 -62830-1 0  9994,2 55283  70.0003 241.1728 0003134 266.1889 329.1691 15.14342391 11085,6901.113,95.091,525.141,520.815,0.0
55283.0,STARLINK-5317,PAYLOAD,2023-03-28 14:00:01,15.13773203,0.0003157,70.0006,240.5268,271.4927,246.1235,-0.065487,-0.01095099,0.0,0 STARLINK-5317,1 55283U 23010Q   23087.58334491 -.01095099  00000-0 -65487-1 0  9992,2 55283  70.0006 240.5268 0003157 271.4927 246.1235 15.13773203  1302,6902.843,95.127,526.887,522.528,0.0
55283.0,STARLINK-5317,PAYLOAD,2023-03-28 22:00:00,15.13015195,0.000307,70.0002,239.6664,275.2757,257.8692,-0.066323,-0.01086338,0.0,0 STARLINK-5317,1 55283U 23010Q   23087.91667824 -.01086338  00000-0 -66323-1 0  9994,2 55283  70.0002 239.6664 0003070 275.2757 257.8692 15.13015195  1309,6905.148,95.174,529.133,524.893,0.0
55283.0,STARLINK-5317,PAYLOAD,2023-03-29 02:00:01,15.12630197,0.000323,70.0001,239.2366,271.5616,89.0132,-0.06749,-0.01093081,0.0,0 STARLINK-5317,1 55283U 23010Q   23088.08334491 -.01093081  00000-0 -67490-1 0  9993,2 55283  70.0001 239.2366 0003230 271.5616  89.0132 15.12630197 11190,6906.319,95.198,530.415,525.954,0.0
55283.0,STARLINK-5317,PAYLOAD,2023-03-29 14:00:01,15.11487105,0.0003057,70.0004,237.949,270.5116,290.9723,-0.06953,-0.0109086,0.0,0 STARLINK-5317,1 55283U 23010Q   23088.58334491 -.01090860  00000-0 -69530-1 0  9997,2 55283  70.0004 237.9490 0003057 270.5116 290.9723 15.11487105  1306,6909.801,95.27,533.778,529.554,0.0
55283.0,STARLINK-5317,PAYLOAD,2023-03-29 22:00:00,15.10734471,0.0003018,70.0,237.0917,273.7826,300.4883,-0.070998,-0.01090825,0.0,0 STARLINK-5317,1 55283U 23010Q   23088.91667824 -.01090825  00000-0 -70998-1 0  9994,2 55283  70.0000 237.0917 0003018 273.7826 300.4883 15.10734471  1301,6912.096,95.318,536.047,531.875,0.0
55283.0,STARLINK-5317,PAYLOAD,2023-03-30 08:00:01,15.09780364,0.000324,70.0001,236.0216,266.3638,52.6185,-0.071858,-0.01076445,0.0,0 STARLINK-5317,1 55283U 23010Q   23089.33334491 -.01076445  00000-0 -71858-1 0  9990,2 55283  70.0001 236.0216 0003240 266.3638  52.6185 15.09780364 11389,6915.008,95.378,539.113,534.632,0.0
55283.0,STARLINK-5317,PAYLOAD,2023-03-31 00:00:00,15.08276588,0.0003184,69.9999,234.3125,273.0421,66.5119,-0.07861,-0.0112583,0.0,0 STARLINK-5317,1 55283U 23010Q   23090.00001157 -.01125830  00000-0 -78610-1 0  9992,2 55283  69.9999 234.3125 0003184 273.0421  66.5119 15.08276588  1303,6919.603,95.473,543.671,539.265,0.0
55283.0,STARLINK-5317,PAYLOAD,2023-03-31 06:00:00,15.07654715,0.0003086,70.0,233.6727,266.8489,349.4924,-0.071992,-0.010214,0.0,0 STARLINK-5317,1 55283U 23010Q   23090.25001157 -.01021400  00000-0 -71992-1 0  9993,2 55283  70.0000 233.6727 0003086 266.8489 349.4924 15.07654715 11527,6921.506,95.513,545.507,541.235,0.0
55283.0,STARLINK-5317,PAYLOAD,2023-03-31 18:00:00,15.065293,0.0003138,70.0002,232.3944,276.9958,171.3488,-0.076832,-0.0105465,0.0,0 STARLINK-5317,1 55283U 23010Q   23090.75001157 -.01054650  00000-0 -76832-1 0  9999,2 55283  70.0002 232.3944 0003138 276.9958 171.3488 15.06529300 11603,6924.952,95.584,548.99,544.644,0.0
55283.0,STARLINK-5317,PAYLOAD,2023-04-01 14:00:01,15.04622999,0.0003123,70.0004,230.2698,270.7317,13.0712,-0.081755,-0.01065118,0.0,0 STARLINK-5317,1 55283U 23010Q   23091.58334491 -.01065118  00000-0 -81755-1 0  9992,2 55283  70.0004 230.2698 0003123 270.7317  13.0712 15.04622999  1307,6930.8,95.705,554.83,550.501,0.0
55283.0,STARLINK-5317,PAYLOAD,2023-04-01 16:00:00,15.04421524,0.0003185,70.0004,230.0577,274.1285,100.9056,-0.080002,-0.01038683,0.0,0 STARLINK-5317,1 55283U 23010Q   23091.66667824 -.01038683  00000-0 -80002-1 0  9991,2 55283  70.0004 230.0577 0003185 274.1285 100.9056 15.04421524 11748,6931.419,95.718,555.492,551.076,0.0
55283.0,STARLINK-5317,PAYLOAD,2023-04-02 00:00:00,15.03705777,0.0003158,70.0002,229.2097,274.8038,104.5712,-0.088316,-0.01118277,0.0,0 STARLINK-5317,1 55283U 23010Q   23092.00001157 -.01118277  00000-0 -88316-1 0  9995,2 55283  70.0002 229.2097 0003158 274.8038 104.5712 15.03705777  1300,6933.618,95.763,557.673,553.294,0.0
55283.0,STARLINK-5317,PAYLOAD,2023-04-02 08:00:01,15.02939899,0.0003234,70.0006,228.3629,269.6245,113.1888,-0.087817,-0.01091619,0.0,0 STARLINK-5317,1 55283U 23010Q   23092.33334491 -.01091619  00000-0 -87817-1 0  9996,2 55283  70.0006 228.3629 0003234 269.6245 113.1888 15.02939899 11845,6935.974,95.812,560.082,555.596,0.0
55283.0,STARLINK-5317,PAYLOAD,2023-04-02 14:00:01,15.02334311,0.0003167,70.0006,227.7283,271.7174,23.0971,-0.086017,-0.01054994,0.0,0 STARLINK-5317,1 55283U 23010Q   23092.58334491 -.01054994  00000-0 -86017-1 0  9999,2 55283  70.0006 227.7283 0003167 271.7174  23.0971 15.02334311  1304,6937.837,95.851,561.9,557.505,0.0
55283.0,STARLINK-5317,PAYLOAD,2023-04-02 22:00:00,15.01618238,0.000314,70.0004,226.8831,274.3671,22.2733,-0.093383,-0.01118531,0.0,0 STARLINK-5317,1 55283U 23010Q   23092.91667824 -.01118531  00000-0 -93383-1 0  9997,2 55283  70.0004 226.8831 0003140 274.3671  22.2733 15.01618238  1302,6940.043,95.897,564.087,559.729,0.0
55283.0,STARLINK-5317,PAYLOAD,2023-04-03 14:00:01,15.00017033,0.0003143,70.0009,225.1958,273.7037,23.9139,-0.084028,-0.00975187,0.0,0 STARLINK-5317,1 55283U 23010Q   23093.58334491 -.00975187  00000-0 -84028-1 0  9995,2 55283  70.0009 225.1958 0003143 273.7037  23.9139 15.00017033 12025,6944.981,95.999,569.029,564.663,0.0
55283.0,STARLINK-5317,PAYLOAD,2023-04-03 22:00:00,14.99217221,0.0002973,70.0007,224.3536,277.1605,19.5375,-0.0099723,-0.00119797,0.0,0 STARLINK-5317,1 55283U 23010Q   23093.91667824 -.00119797  00000-0 -99723-2 0  9997,2 55283  70.0007 224.3536 0002973 277.1605  19.5375 14.99217221 12071,6947.451,96.05,571.381,567.25,0.0
55283.0,STARLINK-5317,PAYLOAD,2023-04-04 14:00:01,14.99152958,0.0003072,70.0012,222.6706,273.9975,19.6309,-0.0032273,-0.00039213,0.0,0 STARLINK-5317,1 55283U 23010Q   23094.58334491 -.00039213  00000-0 -32273-2 0  9993,2 55283  70.0012 222.6706 0003072 273.9975  19.6309 14.99152958 12176,6947.649,96.054,571.648,567.38,0.0
55283.0,STARLINK-5317,PAYLOAD,2023-04-04 16:00:00,14.99139642,0.0003059,70.0012,222.4603,276.0415,107.2047,-0.0015504,-0.00018934,0.0,0 STARLINK-5317,1 55283U 23010Q   23094.66667824 -.00018934  00000-0 -15504-2 0  9996,2 55283  70.0012 222.4603 0003059 276.0415 107.2047 14.99139642  1309,6947.69,96.055,571.681,567.43,0.0
55283.0,STARLINK-5317,PAYLOAD,2023-04-04 22:00:00,14.9914333,0.0003116,70.001,221.8291,276.0278,16.057,-0.0017064,-0.00020827,0.0,0 STARLINK-5317,1 55283U 23010Q   23094.91667824 -.00020827  00000-0 -17064-2 0  9991,2 55283  70.0010 221.8291 0003116 276.0278  16.0570 14.99143330  1301,6947.679,96.055,571.709,567.379,0.0
55283.0,STARLINK-5317,PAYLOAD,2023-04-05 06:00:00,14.99103251,0.0003104,70.0012,220.9876,269.6595,20.8748,0.0061766,0.00075915,0.0,0 STARLINK-5317,1 55283U 23010Q   23095.25001157  .00075915  00000-0  61766-2 0  9994,2 55283  70.0012 220.9876 0003104 269.6595  20.8748 14.99103251 12275,6947.803,96.057,571.824,567.511,0.0
55283.0,STARLINK-5317,PAYLOAD,2023-04-05 14:00:01,14.99163315,0.0003176,70.0015,220.1461,272.913,16.0673,-0.00271,-0.00032981,0.0,0 STARLINK-5317,1 55283U 23010Q   23095.58334491 -.00032981  00000-0 -27100-2 0  9992,2 55283  70.0015 220.1461 0003176 272.9130  16.0673 14.99163315  1304,6947.617,96.054,571.689,567.276,0.0
